0 ARIANE 2 DEB
1 33533U 88040G   13280.43325116 -.00000173  00000-0 -11462-2 0  5205
2 33533 007.8580 026.7145 7145960 086.3268 336.1272 02.30062853 76340
0 ARIANE 2 DEB
1 33533U 88040G   13282.59116907 -.00000106  00000-0 -54913-3 0  5216
2 33533 007.8587 025.9129 7145631 087.9381 323.3664 02.30062620 76398
0 ARIANE 2 DEB
1 33533U 88040G   13287.41193859 -.00000100  00000-0 -95281-3 0  5221
2 33533 007.8593 024.1110 7144944 091.5433 356.0115 02.30062254 76501
0 ARIANE 2 DEB
1 33533U 88040G   13289.59592315 -.00000131  00000-0 -99990-3 0  5238
2 33533 007.8565 023.3095 7144474 093.1646 004.8306 02.30063183 76552
0 ARIANE 2 DEB
1 33533U 88040G   13292.64094774 -.00000245  00000-0 -14063-2 0  5248
2 33533 007.8562 022.1674 7144045 095.4402 006.7786 02.30062807 76621
0 ARIANE 2 DEB
1 33533U 88040G   13294.36701620 -.00000310  00000-0 -18588-2 0  5254
2 33533 007.8589 021.5022 7143612 096.7461 356.3360 02.30062305 76667
